[{"OBJECT_NAME":"STARLINK-4275","OBJECT_ID":"2022-076Y","EPOCH":"2026-03-09T18:55:47.599968","MEAN_MOTION":15.08840177,"ECCENTRICITY":0.00013987,"INCLINATION":53.2171,"RA_OF_ASC_NODE":93.6662,"ARG_OF_PERICENTER":82.4868,"MEAN_ANOMALY":277.6283,"EPHEMERIS_TYPE":0,"CLASSIFICATION_TYPE":"U","NORAD_CAT_ID":53008,"ELEMENT_SET_NO":999,"REV_AT_EPOCH":20286,"BSTAR":3.3402469e-5,"MEAN_MOTION_DOT":2.44e-6,"MEAN_MOTION_DDOT":0},{"OBJECT_NAME":"DISKSAT B","OBJECT_ID":"2025-305B","EPOCH":"2026-03-09T19:33:34.074144","MEAN_MOTION":15.07484556,"ECCENTRICITY":0.00037827,"INCLINATION":45.0018,"RA_OF_ASC_NODE":250.2098,"ARG_OF_PERICENTER":311.4052,"MEAN_ANOMALY":48.6498,"EPHEMERIS_TYPE":0,"CLASSIFICATION_TYPE":"U","NORAD_CAT_ID":67220,"ELEMENT_SET_NO":999,"REV_AT_EPOCH":1231,"BSTAR":0.00082400752,"MEAN_MOTION_DOT":0.00012481,"MEAN_MOTION_DDOT":0}]
